*******************************************************************************
Ephemeris / WWW_USER Mon Mar 26 19:48:25 2018 Pasadena, USA      / Horizons    
*******************************************************************************
Target body name: Enceladus (602)                 {source: sat389}
Center body name: Saturn Barycenter (6)           {source: sat389}
Center-site name: BODY CENTER
*******************************************************************************
Start time      : A.D. 2000-Jan-01 00:00:00.0000 TDB
Stop  time      : A.D. 2001-Jan-01 00:00:00.0000 TDB
Step-size       : 7200 minutes
*******************************************************************************
Center geodetic : 0.00000000,0.00000000,0.0000000 {E-lon(deg),Lat(deg),Alt(km)}
Center cylindric: 0.00000000,0.00000000,0.0000000 {E-lon(deg),Dxy(km),Dz(km)}
Center radii    : (undefined)                                                  
Output units    : AU-D                                                         
Output type     : GEOMETRIC cartesian states
Output format   : 2 (position and velocity)
Reference frame : ICRF/J2000.0                                                 
Coordinate systm: Ecliptic and Mean Equinox of Reference Epoch                 
*******************************************************************************
JDTDB
   X     Y     Z
   VX    VY    VZ
*******************************************************************************
$$SOE
2451754.500000000 = A.D. 2000-Jul-29 00:00:00.0000 TDB 
   1.437746552890617E-04 -1.410568474563267E-03  7.247725677596586E-04
   7.231908881661440E-03  3.199981265065430E-04 -8.683224682095064E-04
2451759.500000000 = A.D. 2000-Aug-03 00:00:00.0000 TDB 
  -1.374454516079449E-03  7.691544733021902E-04 -2.696526181996092E-04
  -3.675436587779281E-03 -5.406525762052901E-03  3.187533945946505E-03
2451764.500000000 = A.D. 2000-Aug-08 00:00:00.0000 TDB 
   1.451027377287719E-03  4.898957231805929E-04 -3.971703612688037E-04
  -2.855230851159212E-03  6.090181610864128E-03 -2.912831813688672E-03
2451769.500000000 = A.D. 2000-Aug-13 00:00:00.0000 TDB 
  -3.771289061811615E-04 -1.357865589377417E-03  7.476302576668641E-04
   7.048574324364136E-03 -1.792917169475189E-03  2.561286206722070E-04
2451774.500000000 = A.D. 2000-Aug-18 00:00:00.0000 TDB 
  -1.038348291018175E-03  1.111248233731710E-03 -4.813757523571583E-04
  -5.513563012928124E-03 -3.978190083221011E-03  2.617468911146771E-03
2451779.500000000 = A.D. 2000-Aug-23 00:00:00.0000 TDB 
   1.573356660215348E-03  2.962396954959244E-05 -1.679171347483223E-04
  -4.956024108099213E-04  6.496615754407160E-03 -3.354270770423661E-03
2451784.500000000 = A.D. 2000-Aug-28 00:00:00.0000 TDB 
  -8.569928404662553E-04 -1.158368299860037E-03  6.896382605075471E-04
   6.107101794185353E-03 -3.701891242413477E-03  1.347181349201975E-03
2451789.500000000 = A.D. 2000-Sep-02 00:00:00.0000 TDB 
  -5.893185301105775E-04  1.333029987179345E-03 -6.410054451595498E-04
  -6.763124735191196E-03 -2.108892963947868E-03  1.759412755865257E-03
2451794.500000000 = A.D. 2000-Sep-07 00:00:00.0000 TDB 
   1.521387089218917E-03 -4.337914005937656E-04  7.986479303480253E-05
   1.914199972515014E-03  6.181705047896326E-03 -3.422715718324746E-03
2451799.500000000 = A.D. 2000-Sep-12 00:00:00.0000 TDB 
  -1.244522890772997E-03 -8.343778791094153E-04  5.574827369745364E-04
   4.514154303624308E-03 -5.207609686753168E-03  2.290091722978822E-03
2451804.500000000 = A.D. 2000-Sep-17 00:00:00.0000 TDB 
  -7.552602807488825E-05  1.409230181455061E-03 -7.306691536282026E-04
  -7.279415219596207E-03  3.114476176062133E-06  7.032061760226233E-04
2451809.500000000 = A.D. 2000-Sep-22 00:00:00.0000 TDB 
   1.301677110746100E-03 -8.491640696598984E-04  3.186992320716956E-04
   4.102626787313999E-03  5.186177917457964E-03 -3.113203242508675E-03
2451814.500000000 = A.D. 2000-Sep-27 00:00:00.0000 TDB 
  -1.498366751479810E-03 -4.208865812377153E-04  3.654716080193484E-04
   2.439506457308249E-03 -6.154609899610703E-03  2.986979861208037E-03
2451819.500000000 = A.D. 2000-Oct-02 00:00:00.0000 TDB 
   4.470501241258776E-04  1.330416556298083E-03 -7.400125530611460E-04
  -6.995057678996926E-03  2.126511289914261E-03 -4.364947822091264E-04
2451824.500000000 = A.D. 2000-Oct-07 00:00:00.0000 TDB 
   9.395158255114407E-04 -1.171071803438544E-03  5.223468648655901E-04
   5.829013065159350E-03  3.628220924622564E-03 -2.464337000917226E-03
2451829.500000000 = A.D. 2000-Oct-12 00:00:00.0000 TDB 
  -1.591189507183044E-03  3.796542358957675E-05  1.340993895470428E-04
   9.996598165209270E-05 -6.443210192503682E-03  3.364634871311394E-03
2451834.500000000 = A.D. 2000-Oct-17 00:00:00.0000 TDB 
   9.205755585525562E-04  1.104595038525730E-03 -6.676002659628750E-04
  -5.933731809435816E-03  4.022143655269661E-03 -1.532113089856552E-03
2451839.500000000 = A.D. 2000-Oct-22 00:00:00.0000 TDB 
   4.753674743584685E-04 -1.365002854437459E-03  6.688436631979038E-04
   6.911114272630942E-03  1.685453812428759E-03 -1.551516717092236E-03
2451844.500000000 = A.D. 2000-Oct-27 00:00:00.0000 TDB 
  -1.512581923134466E-03  4.931602212337889E-04 -1.119298666933197E-04
  -2.259630135171841E-03 -6.038834467051999E-03  3.381236887693962E-03
2451849.500000000 = A.D. 2000-Nov-01 00:00:00.0000 TDB 
   1.292122422056037E-03  7.563745467133176E-04 -5.211721872525778E-04
  -4.211109299417063E-03  5.473299438817212E-03 -2.458926118387079E-03
2451854.500000000 = A.D. 2000-Nov-06 00:00:00.0000 TDB 
  -3.989710106597516E-05 -1.410945943224896E-03  7.427958711255350E-04
   7.241244511281762E-03 -4.283399628592010E-04 -4.763113539905689E-04
2451859.500000000 = A.D. 2000-Nov-11 00:00:00.0000 TDB 
  -1.270026347576601E-03  8.953790957466273E-04 -3.460533006076338E-04
  -4.387200107678940E-03 -4.977230233567765E-03  3.031103908865687E-03
2451864.500000000 = A.D. 2000-Nov-16 00:00:00.0000 TDB 
   1.520359239915320E-03  3.244252209010558E-04 -3.169935125747430E-04
  -2.022932108223683E-03  6.315011845007579E-03 -3.111566323909575E-03
2451869.500000000 = A.D. 2000-Nov-21 00:00:00.0000 TDB 
  -5.506299061272380E-04 -1.304860926293639E-03  7.366793963165930E-04
   6.792734779971897E-03 -2.487764113881968E-03  6.457830509247686E-04
2451874.500000000 = A.D. 2000-Nov-26 00:00:00.0000 TDB 
  -8.887265559791601E-04  1.200350356078228E-03 -5.426655906942394E-04
  -6.048453241566976E-03 -3.364708170703179E-03  2.347246105324481E-03
2451879.500000000 = A.D. 2000-Dec-01 00:00:00.0000 TDB 
   1.580376311971827E-03 -1.431729307400855E-04 -7.786914627443737E-05
   3.810527174632867E-04  6.455416381553412E-03 -3.417731544107255E-03
2451884.500000000 = A.D. 2000-Dec-06 00:00:00.0000 TDB 
  -1.002102694593906E-03 -1.058706611205883E-03  6.514319317842493E-04
   5.617551591090909E-03 -4.277123449984021E-03  1.696740802505033E-03
2451889.500000000 = A.D. 2000-Dec-11 00:00:00.0000 TDB 
  -4.094855609342286E-04  1.373768889339759E-03 -6.798713069486142E-04
  -7.053248420451769E-03 -1.372118651462039E-03  1.400762005389489E-03
2451894.500000000 = A.D. 2000-Dec-16 00:00:00.0000 TDB 
   1.466562989497834E-03 -5.947228189884382E-04  1.696454207129200E-04
   2.730431183309776E-03  5.885885028934583E-03 -3.346723418677731E-03
2451899.500000000 = A.D. 2000-Dec-21 00:00:00.0000 TDB 
  -1.346006917624335E-03 -6.989001737129255E-04  4.962107998185627E-04
   3.839359327746074E-03 -5.609665506715565E-03  2.566759041994798E-03
2451904.500000000 = A.D. 2000-Dec-26 00:00:00.0000 TDB 
   1.154437831030166E-04  1.395578477701824E-03 -7.420996131884699E-04
  -7.280774520499842E-03  7.815022239294441E-04  2.947055681866712E-04
2451909.500000000 = A.D. 2000-Dec-31 00:00:00.0000 TDB 
   1.192696527714246E-03 -9.808832444993712E-04  3.983878600196620E-04
   4.767680323686420E-03  4.678196579147515E-03 -2.911214623285365E-03
